STARLINK-3115
1 19447C 21104AR  21326.07832208 -.00870506  00000-0 -31540-2 0  3267
2 19447  53.2179  91.1581 0026251  65.6801 208.3477 15.88110188    17
